A/2020 M4,e,160.0909,348.6018,104.4142,4510,0.0000033,0.99868323,0.0000,11/21.5742/2020,2000,g 14.5,2.0
# From MPC194168
P/2020 MK4 (PANSTARRS),e,6.7805,0.6511,95.3726,6.226527,0.0634359,0.01583058,339.0855,06/20.0/2026,2000,g  8.0,4.0
# From MPC194168
C/2020 M5 (ATLAS),h,08/19.4405/2021,93.1532,351.9692,126.2604,1.000035,3.002010,2000,9.0,4.0
# From MPC194168
C/2020 O2 (Amaral),e,71.7697,256.7720,10.1101,4464,0.0000033,0.99891305,0.0000,08/26.7318/2021,2000,g  8.0,3.2
# From MPC194169
P/2020 O3 (PANSTARRS),e,8.4447,266.8177,80.7858,4.645730,0.0984290,0.10238388,194.5240,06/20.0/2026,2000,g 12.0,4.0
# From MPC194169
C/2020 P3 (ATLAS),h,04/23.2484/2021,61.8225,19.4927,82.3850,1.003970,6.819625,2000,6.0,4.0
# From MPEC 2020-QN1
C/2020 P4-B (SOHO),h,08/07.4067/2020,26.8231,171.7959,173.3612,1.000554,0.102578,2000,0.0,6.0
# From MPEC 2020-QN1
C/2020 P4-C (SOHO),h,08/05.2002/2020,37.2342,165.5012,115.7746,1.013205,0.089202,2000,-1.6,6.0
# From MPC194169
C/2020 PV6 (PANSTARRS),e,128.1262,329.1131,71.2419,41.35561,0.0037060,0.94460318,6.4074,06/20.0/2026,2000,g 10.0,4.0
# From MPC194169
C/2020 Q2 (PANSTARRS),e,3.3369,179.8559,118.0537,10.58594,0.0286161,0.48841291,66.9669,06/20.0/2026,2000,g 12.0,3.2
# From MPC194169
C/2020 R2 (PANSTARRS),e,53.1968,195.1544,211.8923,420.5277,0.0001143,0.98881778,0.0000,02/25.0311/2022,2000,g  9.0,4.0
# From MPC194169
P/2020 R5 (PANSTARRS),e,11.4394,272.9399,82.6929,4.995063,0.0882861,0.31266763,195.7213,06/20.0/2026,2000,g  9.5,6.0
# From MPC194169
C/2020 R7 (ATLAS),e,114.9058,268.2986,347.6920,3437,0.0000049,0.99914208,0.0000,09/15.7787/2022,2000,g  7.0,3.2
# From MPC194170
C/2020 S4 (PANSTARRS),h,02/09.8868/2023,20.5719,117.6748,21.1161,1.003309,3.372637,2000,8.5,3.2
# From MPC194170
P/2020 S5 (PANSTARRS),e,12.3368,315.9390,53.2959,4.060324,0.1204656,0.33690378,258.2440,06/20.0/2026,2000,g 14.5,4.0
# From MPC194170
P/2020 S7 (PANSTARRS),e,16.0631,328.0105,40.7158,5.038649,0.0871431,0.40896071,177.9655,06/20.0/2026,2000,g 14.5,4.0
# From MPC194170
C/2020 T2 (Palomar),e,27.8631,82.8895,150.3640,256.7836,0.0002395,0.99203404,0.0000,07/10.8058/2021,2000,g 11.0,3.2
# From MPC194170
P/2020 T3 (PANSTARRS),e,7.2992,73.9743,357.1130,3.515426,0.1495331,0.59230224,295.1553,06/20.0/2026,2000,g 18.0,3.2
# From MPC194171
C/2020 U4 (PANSTARRS),h,04/10.6076/2022,167.0037,120.4051,70.2086,1.001942,5.363157,2000,7.0,4.0
# From MPEC 2026-L50
C/2020 U5 (PANSTARRS),h,04/28.8664/2022,97.3134,107.3129,75.4706,1.000134,3.755675,2000,8.0,4.0
# From MPC188409
C/2020 V2 (ZTF),h,05/08.6905/2023,131.6043,212.4455,162.5038,1.001278,2.229551,2000,4.9,4.0
# From MPC194171
P/2020 V3 (PANSTARRS),e,23.0098,198.2733,249.9921,8.414827,0.0403772,0.25762907,78.6747,06/20.0/2026,2000,g  8.3,4.0
# From MPC194171
P/2020 V4 (Rankin),e,14.2286,203.4854,257.3831,9.408095,0.0341548,0.45153322,61.2907,06/20.0/2026,2000,g  9.0,4.0
# From MPC194171
P/2020 W1 (Rankin),e,10.7770,124.2568,265.5356,7.227385,0.0507262,0.26475304,114.8241,06/20.0/2026,2000,g 10.0,4.0
# From MPC194171
P/2020 WJ5 (Lemmon),e,22.2908,177.7359,338.2059,6.016595,0.0667848,0.17236462,121.1373,06/20.0/2026,2000,g  8.5,4.0
# From MPC194171
P/2020 X1 (ATLAS),e,31.6823,55.9964,323.5135,4.538582,0.1019351,0.36384150,220.4308,06/20.0/2026,2000,g 13.0,4.0
# From MPC194171
C/2020 X2 (ATLAS),e,18.1867,105.3541,347.6604,16.57175,0.0146100,0.76835404,29.8155,06/20.0/2026,2000,g 10.6,4.0
# From MPC194172
C/2020 X4 (Leonard),e,80.6660,161.9728,140.2296,40.25605,0.0038588,0.87033031,7.8842,06/20.0/2026,2000,g  9.0,4.0
# From MPC194172
C/2020 Y2 (ATLAS),e,101.2638,26.5593,266.4203,1179,0.0000243,0.99733083,0.0000,06/17.5336/2022,2000,g  6.5,4.0
# From MPC194172
C/2021 A1 (Leonard),h,01/04.3165/2022,132.7074,255.8874,225.0899,1.000276,0.613463,2000,8.5,4.0
# From MPC194172
P/2021 A5 (PANSTARRS),e,18.1850,328.6788,62.1557,3.052226,0.1848328,0.14100977,17.0321,06/20.0/2026,2000,g 15.0,4.0
# From MPC194172
C/2021 A6 (PANSTARRS),e,75.5514,163.9959,351.6775,33943,0.0000002,0.99976641,0.0000,05/03.6915/2021,2000,g  7.0,4.0
# From MPC194172
C/2021 A9 (PANSTARRS),h,12/04.8862/2023,158.0176,314.8483,211.7005,1.000036,7.767525,2000,6.0,4.0
# From MPC194173
P/2021 C2 (PANSTARRS),e,21.9294,66.4477,78.8019,9.554291,0.0333739,0.48869989,64.7536,06/20.0/2026,2000,g 12.0,4.0
# From MPC194173
C/2021 C4 (ATLAS),e,132.8188,194.1839,319.9644,2474,0.0000080,0.99818423,0.0000,01/15.3826/2021,2000,g  9.0,4.0
# From MPC194173
C/2021 C5 (PANSTARRS),e,50.8093,323.6761,270.8532,1701,0.0000140,0.99809693,0.0000,02/11.1054/2023,2000,g  9.0,4.0
# From MPC191586
C/2021 D2 (ZTF),h,02/03.1844/2022,83.7631,305.6105,125.1193,1.001364,2.954286,2000,9.0,4.0
# From MPC194173
C/2021 E3 (ZTF),e,112.5239,104.4842,228.7745,2744,0.0000069,0.99935204,0.0000,06/10.3210/2022,2000,g  8.5,4.0
# From MPC194173
A/2021 E4,e,116.4059,171.1223,48.3287,518.9006,0.0000834,0.99097313,0.0000,04/24.9718/2022,2000,g 13.5,2.0
# From MPEC 2026-M30
C/2021 G2 (ATLAS),h,09/09.2024/2024,48.4555,221.0837,343.2728,1.001220,4.982055,2000,5.5,4.0
# From MPC194174
C/2021 G3 (PANSTARRS),e,102.8805,147.3187,10.6505,20993,0.0000003,0.99975290,0.0000,10/18.0912/2021,2000,g 10.5,4.0
# From MPC194174
P/2021 J3 (ATLAS),e,14.5099,110.8762,125.5230,8.874123,0.0372834,0.45011487,94.9651,06/20.0/2026,2000,g  7.0,4.0
# From MPC194174
C/2021 K2 (MASTER),e,100.8852,282.2903,343.2060,375027,0.0000000,0.99998545,0.0000,09/08.4786/2021,2000,g  8.0,4.0
# From MPC194174
C/2021 K3 (Catalina),h,02/02.3784/2022,134.7945,114.5186,181.9559,1.002842,5.220222,2000,10.0,4.0
# From MPC194175
C/2021 L3 (Borisov),h,02/14.7932/2022,78.5148,345.0283,91.6645,1.003910,8.462776,2000,6.0,4.0
# From MPC194175
P/2021 N1 (ZTF),e,11.4857,301.1294,21.2152,2.980834,0.1915127,0.67576804,352.7548,06/20.0/2026,2000,g 19.0,4.0
# From MPC194175
P/2021 N2 (Fuls),e,13.0572,221.7595,177.6469,6.947913,0.0538174,0.45156765,90.3996,06/20.0/2026,2000,g  9.5,4.0
# From MPC194175
C/2021 N3 (PANSTARRS),e,26.7739,337.5486,304.4838,137.5166,0.0006112,0.95851700,1.3042,06/20.0/2026,2000,g  8.5,4.0
# From MPC194175
C/2021 P1 (PANSTARRS),e,51.6010,359.7325,40.5274,2115,0.0000101,0.99792755,0.0000,06/02.1090/2022,2000,g 11.0,4.0
# From MPC194175
C/2021 P2 (PANSTARRS),e,150.0402,32.1051,76.6775,8962,0.0000012,0.99943489,0.0000,01/22.8834/2023,2000,g  9.0,4.0
# From MPC194175
P/2021 P3 (PANSTARRS),e,27.1692,358.2393,333.9174,4.411197,0.1063823,0.33865141,196.7966,06/20.0/2026,2000,g 14.0,4.0
# From MPC194175
C/2021 P4 (ATLAS),e,56.4282,347.9552,175.8416,302.9150,0.0001869,0.99643974,0.0000,07/30.6391/2022,2000,g  9.5,4.0
# From MPC194175
C/2021 Q3 (ATLAS),e,77.7055,307.9036,114.1723,74.44301,0.0015345,0.92997156,2.4653,06/20.0/2026,2000,g  8.0,4.0
# From MPC194176
C/2021 Q4 (Fuls),e,71.5621,183.3403,146.9875,242152,0.0000000,0.99996877,0.0000,06/09.8206/2023,2000,g  6.0,4.0
# From MPC194176
P/2021 Q5 (ATLAS),e,10.7364,239.7260,180.9774,3.284156,0.1656031,0.62411207,290.3395,06/20.0/2026,2000,g 15.0,4.0
# From MPC194176
C/2021 Q6 (PANSTARRS),h,03/25.2435/2024,161.8280,133.5733,141.0545,1.003727,8.706882,2000,6.0,4.0
# From MPC194176
C/2021 QM45 (PANSTARRS),e,22.7811,354.5873,72.9859,412.8074,0.0001175,0.99325963,0.0000,08/13.4090/2022,2000,g 11.0,4.0
# From MPC194176
P/2021 R1 (PANSTARRS),e,5.5430,143.0408,219.9334,8.230211,0.0417434,0.40578446,69.2675,06/20.0/2026,2000,g 11.0,4.0
# From MPC194176
C/2021 R2 (PANSTARRS),e,134.4749,16.3721,32.5578,19344,0.0000004,0.99962190,0.0000,12/28.5406/2021,2000,g  7.5,4.0
# From MPC194176
P/2021 R3 (PANSTARRS),e,19.9458,304.1996,2.5889,3.767029,0.1348049,0.33255277,249.5610,06/20.0/2026,2000,g 16.0,4.0
# From MPC194176
P/2021 R5 (Rankin),e,7.8520,219.9721,167.5977,4.799555,0.0937352,0.30539835,151.9206,06/20.0/2026,2000,g 12.0,4.0
# From MPC194177
P/2021 R8 (Sheppard),e,2.2027,167.0039,190.8433,3.020741,0.1877301,0.29236960,322.5036,06/20.0/2026,2000,g 18.5,4.0
# From MPC194177
C/2021 S1 (ATLAS),h,03/02.1841/2022,52.0330,299.8487,148.3760,1.002952,6.130948,2000,7.0,4.0
# From MPC191586
C/2021 S3 (PANSTARRS),e,58.5740,215.5702,6.8313,12582,0.0000007,0.99989517,0.0000,02/14.6715/2024,2000,g  5.5,4.0
# From MPEC 2026-L50
C/2021 S4 (Tsuchinshan),e,17.4839,5.4293,73.1180,150.3947,0.0005344,0.95547796,0.4799,06/20.0/2026,2000,g  6.5,4.0
# From MPC194177
C/2021 T4 (Lemmon),e,160.7793,257.8768,329.7135,2249,0.0000092,0.99934189,0.0000,07/31.2666/2023,2000,g  7.5,4.0
# From MPC194178
P/2021 V2 (Fuls),e,12.6869,232.2702,259.9794,9.101894,0.0358927,0.61551442,44.6719,06/20.0/2026,2000,g 10.0,4.0
# From MPC194178
C/2021 X1 (Maury-Attard),h,05/27.5044/2023,140.1122,10.6541,334.6539,1.000927,3.234284,2000,7.0,4.0
# From MPC194178
C/2021 Y1 (ATLAS),h,05/01.1444/2023,77.1549,244.7607,245.8601,1.001819,2.032306,2000,7.0,4.0
# From MPC194178
C/2022 A2 (PANSTARRS),h,02/18.3263/2023,108.2103,171.6384,88.3712,1.000198,1.734614,2000,9.5,4.0
# From MPC194178
C/2022 A3 (Lemmon-ATLAS),e,88.3637,325.4480,234.9035,1007,0.0000308,0.99632171,0.0000,09/29.2105/2023,2000,g  8.0,4.0
# From MPC194179
P/2022 BV9 (Lemmon),e,11.9210,337.3007,16.2305,4.367650,0.1079773,0.23313697,223.4161,06/20.0/2026,2000,g  9.5,4.0
# From MPC194179
P/2022 C1 (PANSTARRS),e,4.7634,113.0948,9.5560,7.240155,0.0505920,0.44917561,85.3389,06/20.0/2026,2000,g 12.0,4.0
# From MPC194179
P/2022 C2 (PANSTARRS),e,9.9792,135.2338,89.1481,6.032791,0.0665161,0.44252409,94.0070,06/20.0/2026,2000,g 12.5,4.0
# From MPC194179
P/2022 C3 (PANSTARRS),e,12.8235,139.0377,93.7876,9.616740,0.0330493,0.54574698,47.9398,06/20.0/2026,2000,g 11.5,4.0
# From MPC194179
P/2022 D1 (PANSTARRS),e,44.0486,47.9215,88.7080,7.408489,0.0488776,0.54819276,85.8095,06/20.0/2026,2000,g 12.5,4.0
# From MPEC 2022-L66
P/2022 E1 (Christensen),e,19.0073,113.3391,114.8001,3.777512,0.1342441,0.22065095,197.6911,06/20.0/2026,2000,g 13.5,4.0
# From MPEC 2026-M30
C/2022 E2 (ATLAS),h,09/14.3474/2024,137.1406,125.3971,41.7907,1.000781,3.667971,2000,5.0,4.0
# From MPC194179
C/2022 E3 (ZTF),h,01/12.2835/2023,109.1814,302.4871,145.8785,1.000049,1.117190,2000,7.5,4.0
